{
  "norad_id": 51963,
  "name": "STARLINK-3675",
  "history": [
    {
      "epoch": "2026-03-28T19:55:01.275168",
      "apogee_km": 476.02349055013383,
      "perigee_km": 474.4036326113983,
      "latitude_deg": -5.616321606408389,
      "longitude_deg": 175.96808351995423,
      "semi_major_axis_km": 6853.350561580765,
      "eccentricity": 0.00011818,
      "inclination_deg": 53.1591,
      "raan_deg": 284.652,
      "arg_perigee_deg": 85.9644,
      "mean_anomaly_deg": 274.1491,
      "mean_motion_rev_day": 15.30200505
    }
  ]
}