{"fetched_at":"2026-03-30T06:02:59Z","count":15439,"tles":[{"name":"STARLINK-3675","line1":"1 51963U 22025H   26087.82987587  .00000697  00000+0  35653-4 0  9999","line2":"2 51963  53.1591 284.6520 0001181  85.9644 274.1491 15.30200505224102","category":"Starlink"}]}